0 SL-16 DEB
1 20627U 90046D   13281.45189560  .00000105  00000-0  14277-3 0  4062
2 20627 070.9740 281.9384 0216127 333.7683 181.5641 13.70001097168967
0 SL-16 DEB
1 20627U 90046D   13283.98157603  .00000106  00000-0  14409-3 0  4074
2 20627 070.9740 277.0002 0216273 330.2489 057.9224 13.70002392169310
0 SL-16 DEB
1 20627U 90046D   13286.10631503  .00000074  00000-0  11323-3 0  4084
2 20627 070.9742 272.8524 0216338 327.2774 097.1380 13.70003353169608
0 SL-16 DEB
1 20627U 90046D   13288.15330331  .00000126  00000-0  16394-3 0  4098
2 20627 070.9746 268.8563 0216410 324.4211 112.8867 13.70004144169880
0 SL-16 DEB
1 20627U 90046D   13290.35905295  .00000126  00000-0  16348-3 0  4101
2 20627 070.9751 264.5504 0216477 321.3364 191.6613 13.70004713170183
0 SL-16 DEB
1 20627U 90046D   13292.38728164  .00000143  00000-0  18009-3 0  4110
2 20627 070.9753 260.5912 0216540 318.5136 114.8911 13.70005175170462
0 SL-16 DEB
1 20627U 90046D   13294.58581179  .00000157  00000-0  19389-3 0  4125
2 20627 070.9753 256.2997 0216595 315.4512 158.0551 13.70006072170761
